{
  "norad_id": 37781,
  "name": "HAIYANG-2A",
  "history": [
    {
      "epoch": "2026-03-27T12:08:48.902784Z",
      "apogee_km": 975.6352527511372,
      "perigee_km": 971.2522403100556,
      "latitude_deg": 1.7793213721847136e-05,
      "longitude_deg": 83.67288937555128,
      "height_km": 977.5182134852145,
      "semi_major_axis_km": 7351.580746530596,
      "eccentricity": 0.0002981,
      "inclination_deg": 99.3426,
      "raan_deg": 90.8166,
      "arg_perigee_deg": 235.6711,
      "mean_anomaly_deg": 124.4158,
      "mean_motion_rev_day": 13.77309885
    }
  ]
}